{
  "type": "FeatureCollection",
  "features": [
    {
      "type": "Feature",
      "properties": {
        "norad_id": 40799,
        "name": "COSMOS 2251 DEB",
        "group": "cosmos-2251-debris",
        "lat": 31.403998458877478,
        "lon": 103.56098311380751,
        "alt_km": 530.6406840153759,
        "timestamp": "2025-12-15T04:01:20.850595+00:00",
        "meta_object_name": "COSMOS 2251 DEB",
        "meta_object_id": "1993-036BWC",
        "meta_epoch": "2025-12-13T13:22:39.892224",
        "meta_mean_motion": 14.96671954,
        "meta_eccentricity": 0.01192057,
        "meta_inclination": 73.926,
        "meta_ra_of_asc_node": 96.6992,
        "meta_arg_of_pericenter": 338.4049,
        "meta_mean_anomaly": 21.2129,
        "meta_ephemeris_type": 0,
        "meta_classification_type": "U",
        "meta_norad_cat_id": 40799,
        "meta_element_set_no": 999,
        "meta_rev_at_epoch": 49989,
        "meta_bstar": 0.00041648324,
        "meta_mean_motion_dot": 5.451e-05,
        "meta_mean_motion_ddot": 0,
        "tle_line1": "1 40799U 93036BWC 25347.55740616  .00005451  00000+0  41648-3 0  9995",
        "tle_line2": "2 40799  73.9260  96.6992 0119205 338.4049  21.2129 14.96671954499896"
      },
      "geometry": {
        "type": "Point",
        "coordinates": [
          103.56098311380751,
          31.403998458877478
        ]
      }
    },
    {
      "type": "Feature",
      "properties": {
        "norad_id": 40802,
        "name": "COSMOS 2251 DEB",
        "group": "cosmos-2251-debris",
        "lat": -73.84382376424142,
        "lon": 67.18003523714492,
        "alt_km": 603.8936155536148,
        "timestamp": "2025-12-15T04:01:20.850605+00:00",
        "meta_object_name": "COSMOS 2251 DEB",
        "meta_object_id": "1993-036BWF",
        "meta_epoch": "2025-12-14T04:02:34.779840",
        "meta_mean_motion": 14.7763135,
        "meta_eccentricity": 0.00631025,
        "meta_inclination": 74.0398,
        "meta_ra_of_asc_node": 150.2093,
        "meta_arg_of_pericenter": 248.6873,
        "meta_mean_anomaly": 110.7559,
        "meta_ephemeris_type": 0,
        "meta_classification_type": "U",
        "meta_norad_cat_id": 40802,
        "meta_element_set_no": 999,
        "meta_rev_at_epoch": 64430,
        "meta_bstar": 0.00084362537,
        "meta_mean_motion_dot": 6.208e-05,
        "meta_mean_motion_ddot": 0,
        "tle_line1": "1 40802U 93036BWF 25348.16845810  .00006208  00000+0  84363-3 0  9992",
        "tle_line2": "2 40802  74.0398 150.2093 0063102 248.6873 110.7559 14.77631350644309"
      },
      "geometry": {
        "type": "Point",
        "coordinates": [
          67.18003523714492,
          -73.84382376424142
        ]
      }
    },
    {
      "type": "Feature",
      "properties": {
        "norad_id": 40803,
        "name": "COSMOS 2251 DEB",
        "group": "cosmos-2251-debris",
        "lat": -63.813443793710555,
        "lon": -97.0148781506588,
        "alt_km": 701.4345253364618,
        "timestamp": "2025-12-15T04:01:20.850615+00:00",
        "meta_object_name": "COSMOS 2251 DEB",
        "meta_object_id": "1993-036BWG",
        "meta_epoch": "2025-12-05T22:55:29.451072",
        "meta_mean_motion": 14.51792027,
        "meta_eccentricity": 0.00362816,
        "meta_inclination": 74.0122,
        "meta_ra_of_asc_node": 64.6912,
        "meta_arg_of_pericenter": 281.8159,
        "meta_mean_anomaly": 77.8934,
        "meta_ephemeris_type": 0,
        "meta_classification_type": "U",
        "meta_norad_cat_id": 40803,
        "meta_element_set_no": 999,
        "meta_rev_at_epoch": 58654,
        "meta_bstar": 0.00062935795,
        "meta_mean_motion_dot": 2.525e-05,
        "meta_mean_motion_ddot": 0,
        "tle_line1": "1 40803U 93036BWG 25339.95520198  .00002525  00000+0  62936-3 0  9999",
        "tle_line2": "2 40803  74.0122  64.6912 0036281 281.8159  77.8934 14.51792027586549"
      },
      "geometry": {
        "type": "Point",
        "coordinates": [
          -97.0148781506588,
          -63.813443793710555
        ]
      }
    },
    {
      "type": "Feature",
      "properties": {
        "norad_id": 40808,
        "name": "COSMOS 2251 DEB",
        "group": "cosmos-2251-debris",
        "lat": -55.67488668865474,
        "lon": 116.00803935201452,
        "alt_km": 679.2443793467928,
        "timestamp": "2025-12-15T04:01:20.850625+00:00",
        "meta_object_name": "COSMOS 2251 DEB",
        "meta_object_id": "1993-036BWM",
        "meta_epoch": "2025-12-12T17:28:24.743424",
        "meta_mean_motion": 14.67479403,
        "meta_eccentricity": 0.00092278,
        "meta_inclination": 74.041,
        "meta_ra_of_asc_node": 145.4936,
        "meta_arg_of_pericenter": 182.1345,
        "meta_mean_anomaly": 195.7768,
        "meta_ephemeris_type": 0,
        "meta_classification_type": "U",
        "meta_norad_cat_id": 40808,
        "meta_element_set_no": 999,
        "meta_rev_at_epoch": 63619,
        "meta_bstar": 0.00245787,
        "meta_mean_motion_dot": 0.00013931,
        "meta_mean_motion_ddot": 0,
        "tle_line1": "1 40808U 93036BWM 25346.72806416  .00013931  00000+0  24579-2 0  9990",
        "tle_line2": "2 40808  74.0410 145.4936 0009227 182.1345 195.7768 14.67479403636197"
      },
      "geometry": {
        "type": "Point",
        "coordinates": [
          116.00803935201452,
          -55.67488668865474
        ]
      }
    },
    {
      "type": "Feature",
      "properties": {
        "norad_id": 40810,
        "name": "COSMOS 2251 DEB",
        "group": "cosmos-2251-debris",
        "lat": 36.914910870024265,
        "lon": -122.3040892743438,
        "alt_km": 692.0286794066342,
        "timestamp": "2025-12-15T04:01:20.850635+00:00",
        "meta_object_name": "COSMOS 2251 DEB",
        "meta_object_id": "1993-036BWP",
        "meta_epoch": "2025-12-13T23:23:40.805376",
        "meta_mean_motion": 14.58732029,
        "meta_eccentricity": 0.00184639,
        "meta_inclination": 74.0366,
        "meta_ra_of_asc_node": 72.3839,
        "meta_arg_of_pericenter": 224.0736,
        "meta_mean_anomaly": 135.8958,
        "meta_ephemeris_type": 0,
        "meta_classification_type": "U",
        "meta_norad_cat_id": 40810,
        "meta_element_set_no": 999,
        "meta_rev_at_epoch": 61701,
        "meta_bstar": 0.00089103358,
        "meta_mean_motion_dot": 4.142e-05,
        "meta_mean_motion_ddot": 0,
        "tle_line1": "1 40810U 93036BWP 25347.97477784  .00004142  00000+0  89103-3 0  9992",
        "tle_line2": "2 40810  74.0366  72.3839 0018463 224.0736 135.8958 14.58732029617014"
      },
      "geometry": {
        "type": "Point",
        "coordinates": [
          -122.3040892743438,
          36.914910870024265
        ]
      }
    },
    {
      "type": "Feature",
      "properties": {
        "norad_id": 46271,
        "name": "COSMOS 2251 DEB",
        "group": "cosmos-2251-debris",
        "lat": -40.528908624292285,
        "lon": 59.494947236939296,
        "alt_km": 742.571711154571,
        "timestamp": "2025-12-15T04:01:20.850644+00:00",
        "meta_object_name": "COSMOS 2251 DEB",
        "meta_object_id": "1993-036BWT",
        "meta_epoch": "2025-12-13T12:31:04.945728",
        "meta_mean_motion": 14.51432148,
        "meta_eccentricity": 0.0040256,
        "meta_inclination": 74.0483,
        "meta_ra_of_asc_node": 76.7438,
        "meta_arg_of_pericenter": 198.1951,
        "meta_mean_anomaly": 161.7773,
        "meta_ephemeris_type": 0,
        "meta_classification_type": "U",
        "meta_norad_cat_id": 46271,
        "meta_element_set_no": 999,
        "meta_rev_at_epoch": 84653,
        "meta_bstar": 0.00056149048,
        "meta_mean_motion_dot": 2.237e-05,
        "meta_mean_motion_ddot": 0,
        "tle_line1": "1 46271U 93036BWT 25347.52158502  .00002237  00000+0  56149-3 0  9991",
        "tle_line2": "2 46271  74.0483  76.7438 0040256 198.1951 161.7773 14.51432148846535"
      },
      "geometry": {
        "type": "Point",
        "coordinates": [
          59.494947236939296,
          -40.528908624292285
        ]
      }
    },
    {
      "type": "Feature",
      "properties": {
        "norad_id": 46430,
        "name": "COSMOS 2251 DEB",
        "group": "cosmos-2251-debris",
        "lat": 21.26929443772801,
        "lon": -1.8056027608118521,
        "alt_km": 746.1555630000639,
        "timestamp": "2025-12-15T04:01:20.850655+00:00",
        "meta_object_name": "COSMOS 2251 DEB",
        "meta_object_id": "1993-036BWU",
        "meta_epoch": "2025-12-12T18:01:09.115680",
        "meta_mean_motion": 14.51304268,
        "meta_eccentricity": 0.01036453,
        "meta_inclination": 73.9144,
        "meta_ra_of_asc_node": 356.326,
        "meta_arg_of_pericenter": 276.5668,
        "meta_mean_anomaly": 82.3702,
        "meta_ephemeris_type": 0,
        "meta_classification_type": "U",
        "meta_norad_cat_id": 46430,
        "meta_element_set_no": 999,
        "meta_rev_at_epoch": 79683,
        "meta_bstar": 0.0031599798,
        "meta_mean_motion_dot": 0.00013483,
        "meta_mean_motion_ddot": 0,
        "tle_line1": "1 46430U 93036BWU 25346.75079995  .00013483  00000+0  31600-2 0  9999",
        "tle_line2": "2 46430  73.9144 356.3260 0103645 276.5668  82.3702 14.51304268796830"
      },
      "geometry": {
        "type": "Point",
        "coordinates": [
          -1.8056027608118521,
          21.26929443772801
        ]
      }
    }
  ]
}